COSMOS 2426 (717)       
1 29671U 06062B   20099.64097925  .00000011  00000-0  10000-3 0  9997
2 29671  64.9919 270.2690 0019821 170.1546 196.3402  2.12962356103416
COSMOS 2433 (720)       
1 32275U 07052A   20099.26524808 -.00000062  00000-0  10000-3 0  9991
2 32275  65.9618  31.2590 0004100 279.7887 262.5340  2.13104343 96917
COSMOS 2432 (719)       
1 32276U 07052B   20099.34635285 -.00000062  00000-0  10000-3 0  9993
2 32276  65.9733  31.3436 0012489 328.1452 226.7433  2.13103792 96914
COSMOS 2434 (721)       
1 32393U 07065A   20099.24898593  .00000011  00000-0  00000+0 0  9997
2 32393  64.5970 268.8256 0005138  91.7752 325.5698  2.13103093 95620
COSMOS 2436 (723)       
1 32395U 07065C   20099.43716218  .00000011  00000-0  10000-3 0  9998
2 32395  64.6098 268.8700 0015108   8.2826 329.6828  2.13103041 95556
COSMOS 2456 (730)       
1 36111U 09070A   20099.41996611  .00000067  00000-0  00000+0 0  9997
2 36111  64.2190 148.4897 0005303 307.7662  54.1484  2.13102862 80299
COSMOS 2457 (733)       
1 36112U 09070B   20099.42914601  .00000067  00000-0  00000-0 0  9999
2 36112  64.2033 148.3856 0005039 184.4644 308.1042  2.13101479 80291
COSMOS 2459 (731)       
1 36400U 10007A   20099.43450251 -.00000063  00000-0  10000-3 0  9999
2 36400  65.8642  30.2334 0027272 348.0789 179.2540  2.13105212 78640
COSMOS 2461 (735)       
1 36401U 10007B   20099.49553116 -.00000063  00000-0  10000-3 0  9990
2 36401  65.8573  30.2018 0006975  47.3515  75.6857  2.13102064 78648
COSMOS 2460 (732)       
1 36402U 10007C   20099.43272543 -.00000063  00000-0  10000-3 0  9997
2 36402  65.8462  30.1632 0001983 324.7866 149.3371  2.13101459 78649
COSMOS 2464 (736)       
1 37139U 10041C   20099.44408245  .00000010  00000-0  00000-0 0  9991
2 37139  64.2022 268.2946 0027500  14.9988  56.1445  2.13100735 74717
COSMOS 2474 (742)       
1 37829U 11055A   20099.24764466  .00000068  00000-0  00000-0 0  9994
2 37829  64.5400 149.4933 0009983 247.4360 197.3550  2.13101786 66289
COSMOS 2476 (744)       
1 37867U 11064A   20099.42585206  .00000066  00000-0  00000-0 0  9997
2 37867  64.5211 149.5324 0020599 240.9489  26.7878  2.13101984 65638
COSMOS 2477 (745)       
1 37868U 11064B   20099.46678928  .00000066  00000-0  00000-0 0  9996
2 37868  64.5283 149.5873 0018191 242.2158 235.4537  2.13101696 65596
COSMOS 2475 (743)       
1 37869U 11064C   20099.50170163  .00000066  00000-0  00000+0 0  9999
2 37869  64.5345 149.5855 0022405 262.4524 199.3238  2.13101905 65601
COSMOS 2485 (747)       
1 39155U 13019A   20099.36104463  .00000067  00000-0  00000+0 0  9996
2 39155  64.6877 149.7872 0021025 236.3034  26.3085  2.13101910 54104
COSMOS 2492 (754)       
1 39620U 14012A   20099.36014189 -.00000063  00000-0  10000-3 0  9994
2 39620  65.7367  29.9576 0015641 325.0118 332.0107  2.13103319 47056
COSMOS 2500 (755)       
1 40001U 14032A   20099.42124816 -.00000063  00000-0  00000-0 0  9993
2 40001  65.6772  29.8770 0005722 227.0748 337.5305  2.13102712 45272
COSMOS 2501 (702K)      
1 40315U 14075A   20099.45517721  .00000009  00000-0  00000-0 0  9991
2 40315  63.9208 269.2660 0015040 203.8768 182.2977  2.13098585 41684
COSMOS 2514 (751)       
1 41330U 16008A   20099.29450279 -.00000064  00000-0  00000-0 0  9995
2 41330  65.4786  29.7720 0009402 228.3615  61.3032  2.13103137 32436
COSMOS 2516 (753)       
1 41554U 16032A   20099.29960973  .00000010  00000-0  00000-0 0  9997
2 41554  64.1416 269.3239 0010645 212.3775 331.9391  2.13101772 30040
COSMOS 2522 (752)       
1 42939U 17055A   20099.62318698  .00000010  00000-0  00000-0 0  9999
2 42939  64.3745 269.4696 0005127 247.5667  51.5509  2.13101941 19807
COSMOS 2527 (756)       
1 43508U 18053A   20099.33347444  .00000068  00000-0  00000+0 0  9992
2 43508  64.8528 149.6225 0008395 238.3393 230.2207  2.13102652 14092
COSMOS 2529 (757)       
1 43687U 18086A   20099.32342028  .00000011  00000-0  00000-0 0  9997
2 43687  64.5901 269.5839 0007820 279.6390 105.1297  2.13102097 11114
COSMOS 2534 (758)       
1 44299U 19030A   20099.58032573  .00000010  00000-0  00000+0 0  9994
2 44299  64.6552 269.3831 0011486 298.2951  58.6372  2.13102078  6759
